{
  "norad_id": 53869,
  "name": "STARLINK-4810",
  "history": [
    {
      "epoch": "2026-03-28T17:54:35.475552Z",
      "apogee_km": 540.5958377082743,
      "perigee_km": 538.8622204813819,
      "latitude_deg": -5.693112486529251e-05,
      "longitude_deg": 93.42997542203321,
      "height_km": 540.6263936310161,
      "semi_major_axis_km": 6917.866029094827,
      "eccentricity": 0.0001253,
      "inclination_deg": 53.2166,
      "raan_deg": 188.2401,
      "arg_perigee_deg": 90.1048,
      "mean_anomaly_deg": 270.0087,
      "mean_motion_rev_day": 15.08844698
    }
  ]
}